[
    {
        "Altitude(m)": 607897.629076926,
        "Argument of Periapsis(deg)": 0.0,
        "Eccentricity": 0.0,
        "Inclination(deg)": 60.0,
        "Latitude(deg)": -14.293015945895732,
        "Longitude(deg)": -158.3812682496388,
        "Mean Anomaly(deg)": -16.363600000000037,
        "RAAN(deg)": 310.0,
        "Satellite Name": "Test1 1385",
        "Satellite Number": 1385,
        "Semi-Major Axis(m)": 6980739.136638005,
        "Time(s)": 0
    },
    {
        "Altitude(m)": 607750.8299452574,
        "Argument of Periapsis(deg)": 0.00010418945913296404,
        "Eccentricity": 0.0,
        "Inclination(deg)": 60.0,
        "Latitude(deg)": -13.75885781423184,
        "Longitude(deg)": -158.09419831573132,
        "Mean Anomaly(deg)": -15.743493854538185,
        "RAAN(deg)": 309.99957995086027,
        "Satellite Name": "Test1 1385",
        "Satellite Number": 1385,
        "Semi-Major Axis(m)": 6980739.136638005,
        "Time(s)": 10
    },
    {
        "Altitude(m)": 607606.5550860949,
        "Argument of Periapsis(deg)": 0.0002083789182659281,
        "Eccentricity": 0.0,
        "Inclination(deg)": 60.0,
        "Latitude(deg)": -13.224224930956508,
        "Longitude(deg)": -157.80860479297687,
        "Mean Anomaly(deg)": -15.123387709076432,
        "RAAN(deg)": 309.99915990172053,
        "Satellite Name": "Test1 1385",
        "Satellite Number": 1385,
        "Semi-Major Axis(m)": 6980739.136638005,
        "Time(s)": 20
    },
    {
        "Altitude(m)": 607464.8488717749,
        "Argument of Periapsis(deg)": 0.00031256837739889213,
        "Eccentricity": 0.0,
        "Inclination(deg)": 60.0,
        "Latitude(deg)": -12.68913760069943,
        "Longitude(deg)": -157.52442300184975,
        "Mean Anomaly(deg)": -14.503281563614529,
        "RAAN(deg)": 309.9987398525808,
        "Satellite Name": "Test1 1385",
        "Satellite Number": 1385,
        "Semi-Major Axis(m)": 6980739.136638005,
        "Time(s)": 30
    },
    {
        "Altitude(m)": 607325.7543975448,
        "Argument of Periapsis(deg)": 0.0004167578365318562,
        "Eccentricity": 0.0,
        "Inclination(deg)": 60.0,
        "Latitude(deg)": -12.15361585554302,
        "Longitude(deg)": -157.24158860548124,
        "Mean Anomaly(deg)": -13.883175418152776,
        "RAAN(deg)": 309.99831980344106,
        "Satellite Name": "Test1 1385",
        "Satellite Number": 1385,
        "Semi-Major Axis(m)": 6980739.136638005,
        "Time(s)": 40
    },
    {
        "Altitude(m)": 607189.3134632498,
        "Argument of Periapsis(deg)": 0.0005209472956648203,
        "Eccentricity": 0.0,
        "Inclination(deg)": 60.0,
        "Latitude(deg)": -11.61767946896115,
        "Longitude(deg)": -156.96003857812516,
        "Mean Anomaly(deg)": -13.263069272690924,
        "RAAN(deg)": 309.99789975430133,
        "Satellite Name": "Test1 1385",
        "Satellite Number": 1385,
        "Semi-Major Axis(m)": 6980739.136638005,
        "Time(s)": 50
    },
    {
        "Altitude(m)": 607055.5665556567,
        "Argument of Periapsis(deg)": 0.0006251367547977843,
        "Eccentricity": 0.0,
        "Inclination(deg)": 60.0,
        "Latitude(deg)": -11.08134796940691,
        "Longitude(deg)": -156.67971066142812,
        "Mean Anomaly(deg)": -12.642963127229072,
        "RAAN(deg)": 309.99747970516154,
        "Satellite Name": "Test1 1385",
        "Satellite Number": 1385,
        "Semi-Major Axis(m)": 6980739.136638005,
        "Time(s)": 60
    },
    {
        "Altitude(m)": 606924.5528313689,
        "Argument of Periapsis(deg)": 0.0007293262139307483,
        "Eccentricity": 0.0,
        "Inclination(deg)": 60.0,
        "Latitude(deg)": -10.544640653562778,
        "Longitude(deg)": -156.40054282134574,
        "Mean Anomaly(deg)": -12.02285698176727,
        "RAAN(deg)": 309.99705965602186,
        "Satellite Name": "Test1 1385",
        "Satellite Number": 1385,
        "Semi-Major Axis(m)": 6980739.136638005,
        "Time(s)": 70
    },
    {
        "Altitude(m)": 606796.3101004625,
        "Argument of Periapsis(deg)": 0.0008335156730637124,
        "Eccentricity": 0.0,
        "Inclination(deg)": 60.0,
        "Latitude(deg)": -10.007576599270168,
        "Longitude(deg)": -156.12247421855162,
        "Mean Anomaly(deg)": -11.402750836305417,
        "RAAN(deg)": 309.99663960688207,
        "Satellite Name": "Test1 1385",
        "Satellite Number": 1385,
        "Semi-Major Axis(m)": 6980739.136638005,
        "Time(s)": 80
    },
    {
        "Altitude(m)": 606670.8748106895,
        "Argument of Periapsis(deg)": 0.0009377051321966765,
        "Eccentricity": 0.0,
        "Inclination(deg)": 60.0,
        "Latitude(deg)": -9.470174678161927,
        "Longitude(deg)": -155.84544466656286,
        "Mean Anomaly(deg)": -10.782644690843563,
        "RAAN(deg)": 309.9962195577423,
        "Satellite Name": "Test1 1385",
        "Satellite Number": 1385,
        "Semi-Major Axis(m)": 6980739.136638005,
        "Time(s)": 90
    },
    {
        "Altitude(m)": 606548.2820324254,
        "Argument of Periapsis(deg)": 0.0010418945913296407,
        "Eccentricity": 0.0,
        "Inclination(deg)": 60.0,
        "Latitude(deg)": -8.932453568011551,
        "Longitude(deg)": -155.5693940904247,
        "Mean Anomaly(deg)": -10.16253854538171,
        "RAAN(deg)": 309.99579950860254,
        "Satellite Name": "Test1 1385",
        "Satellite Number": 1385,
        "Semi-Major Axis(m)": 6980739.136638005,
        "Time(s)": 100
    },
    {
        "Altitude(m)": 606428.5654442277,
        "Argument of Periapsis(deg)": 0.0011460840504626045,
        "Eccentricity": 0.0,
        "Inclination(deg)": 60.0,
        "Latitude(deg)": -8.394431764814373,
        "Longitude(deg)": -155.29426349880166,
        "Mean Anomaly(deg)": -9.542432399919907,
        "RAAN(deg)": 309.9953794594628,
        "Satellite Name": "Test1 1385",
        "Satellite Number": 1385,
        "Semi-Major Axis(m)": 6980739.136638005,
        "Time(s)": 110
    },
    {
        "Altitude(m)": 606311.7573191298,
        "Argument of Periapsis(deg)": 0.0012502735095955685,
        "Eccentricity": 0.0,
        "Inclination(deg)": 60.0,
        "Latitude(deg)": -7.856127594622061,
        "Longitude(deg)": -155.01999444369523,
        "Mean Anomaly(deg)": -8.922326254458055,
        "RAAN(deg)": 309.9949594103231,
        "Satellite Name": "Test1 1385",
        "Satellite Number": 1385,
        "Semi-Major Axis(m)": 6980739.136638005,
        "Time(s)": 120
    },
    {
        "Altitude(m)": 606197.8885115593,
        "Argument of Periapsis(deg)": 0.0013544629687285324,
        "Eccentricity": 0.0,
        "Inclination(deg)": 60.0,
        "Latitude(deg)": -7.317559225144835,
        "Longitude(deg)": -154.7465284806353,
        "Mean Anomaly(deg)": -8.3022201089962,
        "RAAN(deg)": 309.99453936118334,
        "Satellite Name": "Test1 1385",
        "Satellite Number": 1385,
        "Semi-Major Axis(m)": 6980739.136638005,
        "Time(s)": 130
    },
    {
        "Altitude(m)": 606086.9884450086,
        "Argument of Periapsis(deg)": 0.0014586524278614966,
        "Eccentricity": 0.0,
        "Inclination(deg)": 60.0,
        "Latitude(deg)": -6.778744677133661,
        "Longitude(deg)": -154.47380814218766,
        "Mean Anomaly(deg)": -7.6821139635343485,
        "RAAN(deg)": 309.9941193120436,
        "Satellite Name": "Test1 1385",
        "Satellite Number": 1385,
        "Semi-Major Axis(m)": 6980739.136638005,
        "Time(s)": 140
    },
    {
        "Altitude(m)": 605979.0851003793,
        "Argument of Periapsis(deg)": 0.0015628418869944607,
        "Eccentricity": 0.0,
        "Inclination(deg)": 60.0,
        "Latitude(deg)": -6.239701835564077,
        "Longitude(deg)": -154.20177639900206,
        "Mean Anomaly(deg)": -7.062007818072546,
        "RAAN(deg)": 309.9936992629039,
        "Satellite Name": "Test1 1385",
        "Satellite Number": 1385,
        "Semi-Major Axis(m)": 6980739.136638005,
        "Time(s)": 150
    },
    {
        "Altitude(m)": 605874.205005034,
        "Argument of Periapsis(deg)": 0.0016670313461274247,
        "Eccentricity": 0.0,
        "Inclination(deg)": 60.0,
        "Latitude(deg)": -5.70044846063383,
        "Longitude(deg)": -153.93037612124456,
        "Mean Anomaly(deg)": -6.441901672610693,
        "RAAN(deg)": 309.99327921376414,
        "Satellite Name": "Test1 1385",
        "Satellite Number": 1385,
        "Semi-Major Axis(m)": 6980739.136638005,
        "Time(s)": 160
    },
    {
        "Altitude(m)": 605772.3732225598,
        "Argument of Periapsis(deg)": 0.0017712208052603888,
        "Eccentricity": 0.0,
        "Inclination(deg)": 60.0,
        "Latitude(deg)": -5.161002198587267,
        "Longitude(deg)": -153.65955105325855,
        "Mean Anomaly(deg)": -5.821795527148942,
        "RAAN(deg)": 309.99285916462435,
        "Satellite Name": "Test1 1385",
        "Satellite Number": 1385,
        "Semi-Major Axis(m)": 6980739.136638005,
        "Time(s)": 170
    },
    {
        "Altitude(m)": 605673.6133432649,
        "Argument of Periapsis(deg)": 0.001875410264393353,
        "Eccentricity": 0.0,
        "Inclination(deg)": 60.0,
        "Latitude(deg)": -4.621380592385314,
        "Longitude(deg)": -153.3892452756788,
        "Mean Anomaly(deg)": -5.201689381687089,
        "RAAN(deg)": 309.9924391154846,
        "Satellite Name": "Test1 1385",
        "Satellite Number": 1385,
        "Semi-Major Axis(m)": 6980739.136638005,
        "Time(s)": 180
    },
    {
        "Altitude(m)": 605577.947475395,
        "Argument of Periapsis(deg)": 0.0019795997235263173,
        "Eccentricity": 0.0,
        "Inclination(deg)": 60.0,
        "Latitude(deg)": -4.081601092234736,
        "Longitude(deg)": -153.11940266784188,
        "Mean Anomaly(deg)": -4.581583236225287,
        "RAAN(deg)": 309.9920190663449,
        "Satellite Name": "Test1 1385",
        "Satellite Number": 1385,
        "Semi-Major Axis(m)": 6980739.136638005,
        "Time(s)": 190
    }
]